[{"OBJECT_NAME":"COSMOS 2587 (RODNIK-S 21)","OBJECT_ID":"2025-054C","EPOCH":"2026-03-09T20:00:33.370848","MEAN_MOTION":12.42887882,"ECCENTRICITY":0.0014249,"INCLINATION":82.4993,"RA_OF_ASC_NODE":140.5257,"ARG_OF_PERICENTER":223.7134,"MEAN_ANOMALY":136.2818,"EPHEMERIS_TYPE":0,"CLASSIFICATION_TYPE":"U","NORAD_CAT_ID":63290,"ELEMENT_SET_NO":999,"REV_AT_EPOCH":4451,"BSTAR":0.00013922,"MEAN_MOTION_DOT":2.9e-7,"MEAN_MOTION_DDOT":0},{"OBJECT_NAME":"COSMOS 2499 DEB","OBJECT_ID":"2014-028L","EPOCH":"2026-03-09T01:28:00.573600","MEAN_MOTION":12.92010539,"ECCENTRICITY":0.02513733,"INCLINATION":82.5508,"RA_OF_ASC_NODE":322.7895,"ARG_OF_PERICENTER":185.4813,"MEAN_ANOMALY":174.3535,"EPHEMERIS_TYPE":0,"CLASSIFICATION_TYPE":"U","NORAD_CAT_ID":49929,"ELEMENT_SET_NO":999,"REV_AT_EPOCH":20470,"BSTAR":0.0047663192,"MEAN_MOTION_DOT":1.487e-5,"MEAN_MOTION_DDOT":0}]
